[{"OBJECT_NAME":"STARLINK-1812","OBJECT_ID":"2020-088E","EPOCH":"2026-03-09T21:44:17.393568","MEAN_MOTION":15.15107348,"ECCENTRICITY":0.00027492,"INCLINATION":53.0793,"RA_OF_ASC_NODE":298.6686,"ARG_OF_PERICENTER":128.8313,"MEAN_ANOMALY":231.2926,"EPHEMERIS_TYPE":0,"CLASSIFICATION_TYPE":"U","NORAD_CAT_ID":47126,"ELEMENT_SET_NO":999,"REV_AT_EPOCH":29190,"BSTAR":0.0020820336,"MEAN_MOTION_DOT":0.00039367,"MEAN_MOTION_DDOT":0},{"OBJECT_NAME":"PVCC","OBJECT_ID":"2023-155K","EPOCH":"2026-03-09T22:53:45.550752","MEAN_MOTION":15.14680593,"ECCENTRICITY":0.00057691,"INCLINATION":97.5765,"RA_OF_ASC_NODE":145.8322,"ARG_OF_PERICENTER":112.5424,"MEAN_ANOMALY":247.6419,"EPHEMERIS_TYPE":0,"CLASSIFICATION_TYPE":"U","NORAD_CAT_ID":58025,"ELEMENT_SET_NO":999,"REV_AT_EPOCH":13295,"BSTAR":0.00050695822,"MEAN_MOTION_DOT":9.322e-5,"MEAN_MOTION_DDOT":0}]
